*******************************************************************************
JPL/HORIZONS              136199 Eris (2003 UB313)         2021-Jan-02 06:52:45
Rec #:  136199 (+COV) Soln.date: 2020-Dec-18_04:49:19   # obs: 1776 (1954-2020)
 
IAU76/J2000 helio. ecliptic osc. elements (au, days, deg., period=Julian yrs):
 
  EPOCH=  2457263.5 ! 2015-Aug-29.00 (TDB)         Residual RMS= .18179
   EC= .4416925201190718   QR= 37.80530423628522   TP= 2545235.6563921701
   OM= 35.92164891952376   W=  151.1251181374903   IN= 44.11033856806691
   A= 67.71412814377493    MA= 204.3925539020356   ADIST= 97.62295205126463
   PER= 557.22058          N= .001768826           ANGMOM= .126997196
   DAN= 88.88097999999999  DDN= 39.30229           L= 194.3207027
   B= 19.6405248           MOID= 36.86389923       TP= 2256-Jul-08.1563921701
 
Asteroid physical parameters (km, seconds, rotational period in hours):
   GM= n.a.                RAD= n.a.               ROTPER= 25.9
   H= -1.1                 G= .150                 B-V= n.a.
                           ALBEDO= n.a.            STYP= n.a.
 
ASTEROID comments: 
1: soln ref.= JPL#69, OCC=3
2: source=ORB
*******************************************************************************
 
 
*******************************************************************************
Ephemeris / WWW_USER Sat Jan  2 06:52:45 2021 Pasadena, USA      / Horizons
*******************************************************************************
Target body name: 136199 Eris (2003 UB313)        {source: JPL#69}
Center body name: Sun (10)                        {source: DE431}
Center-site name: BODY CENTER
*******************************************************************************
Start time      : A.D. 2020-Sep-01 00:00:00.0000 TDB
Stop  time      : A.D. 2020-Oct-01 00:00:00.0000 TDB
Step-size       : 1440 minutes
*******************************************************************************
Center geodetic : 0.00000000,0.00000000,0.0000000 {E-lon(deg),Lat(deg),Alt(km)}
Center cylindric: 0.00000000,0.00000000,0.0000000 {E-lon(deg),Dxy(km),Dz(km)}
Center radii    : 696000.0 x 696000.0 x 696000.0 k{Equator, meridian, pole}    
Small perturbers: Yes                             {source: SB431-N16}
Output units    : AU-D
Output type     : GEOMETRIC cartesian states
Output format   : 3 (position, velocity, LT, range, range-rate)
Reference frame : Ecliptic of J2000.0
*******************************************************************************
Initial IAU76/J2000 heliocentric ecliptic osculating elements (au, days, deg.):
  EPOCH=  2457263.5 ! 2015-Aug-29.00 (TDB)         Residual RMS= .18179        
   EC= .4416925201190718   QR= 37.80530423628522   TP= 2545235.6563921701      
   OM= 35.92164891952376   W=  151.1251181374903   IN= 44.11033856806691       
  Equivalent ICRF heliocentric equatorial cartesian coordinates (au, au/d):
   X= 8.678175203783417E+01  Y= 4.149583117488577E+01  Z=-4.893413663178215E+00
  VX=-3.640251279054600E-04 VY= 4.618435891367779E-04 VZ= 1.195293461908811E-03
Asteroid physical parameters (km, seconds, rotational period in hours):        
   GM= n.a.                RAD= n.a.               ROTPER= 25.9                
   H= -1.1                 G= .150                 B-V= n.a.                   
                           ALBEDO= n.a.            STYP= n.a.                  
*******************************************************************************
JDTDB
   X     Y     Z
   VX    VY    VZ
   LT    RG    RR
*******************************************************************************
$$SOE
2459114.500000000 = A.D. 2020-Sep-22 00:00:00.0000 TDB 
 X = 8.607165893129972E+01 Y = 3.777454735042540E+01 Z =-1.929453529342890E+01
 VX=-4.079968189247124E-04 VY= 8.876529167557603E-04 VZ= 9.251092013785082E-04
 LT= 5.541947960137676E-01 RG= 9.595585438577935E+01 RR=-2.025496846387650E-04
2459115.500000000 = A.D. 2020-Sep-23 00:00:00.0000 TDB 
 X = 8.607125091658281E+01 Y = 3.777543500156322E+01 Z =-1.929361018093824E+01
 VX=-4.080326132474549E-04 VY= 8.876493530099180E-04 VZ= 9.251157797599072E-04
 LT= 5.541936261370078E-01 RG= 9.595565182789750E+01 RR=-2.025660797964186E-04
2459116.500000000 = A.D. 2020-Sep-24 00:00:00.0000 TDB 
 X = 8.607084286607663E+01 Y = 3.777632264911978E+01 Z =-1.929268506186974E+01
 VX=-4.080683974360506E-04 VY= 8.876457543564886E-04 VZ= 9.251223570484488E-04
 LT= 5.541924561655456E-01 RG= 9.595544925361845E+01 RR=-2.025824789428026E-04
2459117.500000000 = A.D. 2020-Sep-25 00:00:00.0000 TDB 
 X = 8.607043477979151E+01 Y = 3.777721029306053E+01 Z =-1.929175993622450E+01
 VX=-4.081041709985181E-04 VY= 8.876421215314136E-04 VZ= 9.251289332304354E-04
 LT= 5.541912860993601E-01 RG= 9.595524666293855E+01 RR=-2.025988813456290E-04
2459118.500000000 = A.D. 2020-Sep-26 00:00:00.0000 TDB 
 X = 8.607002665773830E+01 Y = 3.777809793335170E+01 Z =-1.929083480400366E+01
 VX=-4.081399335010734E-04 VY= 8.876384552734276E-04 VZ= 9.251355082956191E-04
 LT= 5.541901159384343E-01 RG= 9.595504405585488E+01 RR=-2.026152863243755E-04
2459119.500000000 = A.D. 2020-Sep-27 00:00:00.0000 TDB 
 X = 8.606961849992830E+01 Y = 3.777898556996018E+01 Z =-1.928990966520829E+01
 VX=-4.081756845691498E-04 VY= 8.876347563185347E-04 VZ= 9.251420822368785E-04
 LT= 5.541889456827555E-01 RG= 9.595484143236523E+01 RR=-2.026316932533080E-04
2459120.500000000 = A.D. 2020-Sep-28 00:00:00.0000 TDB 
 X = 8.606921030637308E+01 Y = 3.777987320285368E+01 Z =-1.928898451983956E+01
 VX=-4.082114238882678E-04 VY= 8.876310253940924E-04 VZ= 9.251486550498528E-04
 LT= 5.541877753323138E-01 RG= 9.595463879246792E+01 RR=-2.026481015645163E-04
2459121.500000000 = A.D. 2020-Sep-29 00:00:00.0000 TDB 
 X = 8.606880207708451E+01 Y = 3.778076083200056E+01 Z =-1.928805936789857E+01
 VX=-4.082471512046941E-04 VY= 8.876272632124218E-04 VZ= 9.251552267325157E-04
 LT= 5.541866048871029E-01 RG= 9.595443613616180E+01 RR=-2.026645107509356E-04
2459122.500000000 = A.D. 2020-Sep-30 00:00:00.0000 TDB 
 X = 8.606839381207475E+01 Y = 3.778164845736991E+01 Z =-1.928713420938647E+01
 VX=-4.082828663258125E-04 VY= 8.876234704638606E-04 VZ= 9.251617972846853E-04
 LT= 5.541854343471191E-01 RG= 9.595423346344629E+01 RR=-2.026809203693146E-04
2459123.500000000 = A.D. 2020-Oct-01 00:00:00.0000 TDB 
 X = 8.606798551135600E+01 Y = 3.778253607893151E+01 Z =-1.928620904430438E+01
 VX=-4.083185691201539E-04 VY= 8.876196478092239E-04 VZ= 9.251683667074504E-04
 LT= 5.541842637123608E-01 RG= 9.595403077432108E+01 RR=-2.026973300430972E-04
